[218bianca]
parent = Sun
coord_func = comet_orbit
type = asteroid
radius = 66
name = Bianca
orbit_MeanMotion = 0.2263061
orbit_ArgOfPericenter = 62.9836
orbit_Epoch = 2456800.5
orbit_MeanAnomaly = 349.1634
orbit_AscendingNode = 170.6431
orbit_SemiMajorAxis = 2.666891
lighting = false
albedo = 0.15
slope_parameter = 0.32
orbit_Eccentricity = 0.11645
minor_planet_number = 218
orbit_Inclination = 15.1996
color = 1.0, 1.0, 1.0
tex_map = nomap.png
absolute_magnitude = 8.6

[243ida]
parent = Sun
coord_func = comet_orbit
type = asteroid
radius = 36
name = Ida
orbit_MeanMotion = 0.2035131
orbit_ArgOfPericenter = 110.3175
orbit_Epoch = 2456800.5
orbit_MeanAnomaly = 236.46
orbit_AscendingNode = 324.0286
orbit_SemiMajorAxis = 2.862472
lighting = false
albedo = 0.15
slope_parameter = 0.15
orbit_Eccentricity = 0.041485
minor_planet_number = 243
orbit_Inclination = 1.1322
color = 1.0, 1.0, 1.0
tex_map = ida.png
absolute_magnitude = 9.94

[951gaspra]
parent = Sun
coord_func = comet_orbit
type = asteroid
radius = 18
name = Gaspra
orbit_MeanMotion = 0.3000584
orbit_ArgOfPericenter = 129.5114
orbit_Epoch = 2456800.5
orbit_MeanAnomaly = 233.2158
orbit_AscendingNode = 253.1696
orbit_SemiMajorAxis = 2.209694
lighting = false
albedo = 0.15
slope_parameter = 0.15
orbit_Eccentricity = 0.17351
minor_planet_number = 951
orbit_Inclination = 4.1029
color = 1., 0.904, 0.791
tex_map = gaspra.png
absolute_magnitude = 11.46

[1809prometheus]
orbit_ArgOfPericenter = 231.794
name = Prometheus
coord_func = comet_orbit
orbit_SemiMajorAxis = 2.926215
parent = Sun
orbit_AscendingNode = 99.492
radius = 17
lighting = false
minor_planet_number = 1809
orbit_MeanAnomaly = 286.8199
tex_map = nomap.png
orbit_MeanMotion = 0.1968996
slope_parameter = 0.15
orbit_Eccentricity = 0.102778
orbit_Epoch = 2456800.5
orbit_Inclination = 3.2583
albedo = 0.15
color = 1., 1., 1.
type = asteroid
absolute_magnitude = 11.6

[1810epimetheus]
coord_func = comet_orbit
radius = 11
type = asteroid
color = 1., 1., 1.
orbit_MeanMotion = 0.2971787
lighting = false
orbit_Inclination = 4.0325
tex_map = nomap.png
name = Epimetheus
orbit_AscendingNode = 254.1682
orbit_SemiMajorAxis = 2.223946
albedo = 0.15
minor_planet_number = 1810
orbit_Eccentricity = 0.092022
orbit_ArgOfPericenter = 204.0435
slope_parameter = 0.15
orbit_MeanAnomaly = 341.8034
orbit_Epoch = 2456800.5
absolute_magnitude = 12.6
parent = Sun
